start=new Date('2022-10-08T00:00:00.000Z').valueOf();
sats=[{"APOAPSIS":"541.111","MEAN_MOTION_DDOT":"0.0000000000000","GP_ID":"214438943","EPOCH":"2022-10-07T22:00:00.999936","CLASSIFICATION_TYPE":"U","DECAY_DATE":null,"INCLINATION":"53.2200","PERIAPSIS":"538.375","NORAD_CAT_ID":"52844","MEAN_MOTION_DOT":"-0.00015796","BSTAR":"-0.00097651000000","ELEMENT_SET_NO":"999","SITE":"AFETR","CENTER_NAME":"EARTH","PERIOD":"95.438","SEMIMAJOR_AXIS":"6917.878","OBJECT_ID":"2022-062Q","EPHEMERIS_TYPE":"0","COUNTRY_CODE":"US","ARG_OF_PERICENTER":"36.6093","MEAN_ELEMENT_THEORY":"SGP4","OBJECT_NAME":"STARLINK-4208","TIME_SYSTEM":"UTC","ECCENTRICITY":"0.00019770","FILE":"3595773","REV_AT_EPOCH":"130","RA_OF_ASC_NODE":"240.0829","MEAN_MOTION":"15.08840814","REF_FRAME":"TEME","RCS_SIZE":"LARGE","LAUNCH_DATE":"2022-06-17","TLE_LINE1":"1 52844U 22062Q   22280.91667824 -.00015796  00000-0 -97651-3 0  9993","MEAN_ANOMALY":"352.7745","TLE_LINE2":"2 52844  53.2200 240.0829 0001977  36.6093 352.7745 15.08840814  1309","OBJECT_TYPE":"PAYLOAD"},{"ELEMENT_SET_NO":"999","BSTAR":"-0.00122350000000","SITE":"AFETR","INCLINATION":"53.2187","PERIAPSIS":"538.430","NORAD_CAT_ID":"52845","MEAN_MOTION_DOT":"-0.00019710","GP_ID":"214438213","EPOCH":"2022-10-07T22:00:00.999936","CLASSIFICATION_TYPE":"U","DECAY_DATE":null,"MEAN_MOTION_DDOT":"0.0000000000000","APOAPSIS":"541.029","SEMIMAJOR_AXIS":"6917.864","OBJECT_ID":"2022-062R","EPHEMERIS_TYPE":"0","PERIOD":"95.437","CENTER_NAME":"EARTH","LAUNCH_DATE":"2022-06-17","MEAN_MOTION":"15.08845218","REF_FRAME":"TEME","RCS_SIZE":"LARGE","TIME_SYSTEM":"UTC","ECCENTRICITY":"0.00018790","FILE":"3595773","REV_AT_EPOCH":"130","RA_OF_ASC_NODE":"240.0810","COUNTRY_CODE":"US","ARG_OF_PERICENTER":"46.2286","MEAN_ELEMENT_THEORY":"SGP4","OBJECT_NAME":"STARLINK-4168","OBJECT_TYPE":"PAYLOAD","TLE_LINE2":"2 52845  53.2187 240.0810 0001879  46.2286  77.9384 15.08845218  1304","TLE_LINE1":"1 52845U 22062R   22280.91667824 -.00019710  00000-0 -12235-2 0  9998","MEAN_ANOMALY":"77.9384"},{"PERIOD":"95.437","SEMIMAJOR_AXIS":"6917.870","OBJECT_ID":"2022-062S","EPHEMERIS_TYPE":"0","CENTER_NAME":"EARTH","PERIAPSIS":"538.410","NORAD_CAT_ID":"52846","INCLINATION":"53.2183","MEAN_MOTION_DOT":"-0.00016103","SITE":"AFETR","BSTAR":"-0.00099581000000","ELEMENT_SET_NO":"999","APOAPSIS":"541.061","MEAN_MOTION_DDOT":"0.0000000000000","GP_ID":"214438123","EPOCH":"2022-10-07T22:00:00.999936","DECAY_DATE":null,"CLASSIFICATION_TYPE":"U","TLE_LINE2":"2 52846  53.2183 240.0769 0001916  43.9968  45.3730 15.08843322  1305","OBJECT_TYPE":"PAYLOAD","MEAN_ANOMALY":"45.3730","TLE_LINE1":"1 52846U 22062S   22280.91667824 -.00016103  00000-0 -99581-3 0  9992","REF_FRAME":"TEME","MEAN_MOTION":"15.08843322","RCS_SIZE":"LARGE","LAUNCH_DATE":"2022-06-17","ARG_OF_PERICENTER":"43.9968","COUNTRY_CODE":"US","OBJECT_NAME":"STARLINK-4212","MEAN_ELEMENT_THEORY":"SGP4","ECCENTRICITY":"0.00019160","TIME_SYSTEM":"UTC","REV_AT_EPOCH":"130","RA_OF_ASC_NODE":"240.0769","FILE":"3595773"},{"CENTER_NAME":"EARTH","OBJECT_ID":"2022-062T","EPHEMERIS_TYPE":"0","SEMIMAJOR_AXIS":"6917.878","PERIOD":"95.438","DECAY_DATE":null,"CLASSIFICATION_TYPE":"U","GP_ID":"214438377","EPOCH":"2022-10-07T22:00:00.999936","APOAPSIS":"541.017","MEAN_MOTION_DDOT":"0.0000000000000","BSTAR":"-0.00080973000000","ELEMENT_SET_NO":"999","SITE":"AFETR","MEAN_MOTION_DOT":"-0.00013152","INCLINATION":"53.2177","PERIAPSIS":"538.470","NORAD_CAT_ID":"52847","TLE_LINE1":"1 52847U 22062T   22280.91667824 -.00013152  00000-0 -80973-3 0  9999","MEAN_ANOMALY":"98.5581","OBJECT_TYPE":"PAYLOAD","TLE_LINE2":"2 52847  53.2177 240.0739 0001841  50.8069  98.5581 15.08840646  1302","FILE":"3595773","RA_OF_ASC_NODE":"240.0739","REV_AT_EPOCH":"130","TIME_SYSTEM":"UTC","ECCENTRICITY":"0.00018410","MEAN_ELEMENT_THEORY":"SGP4","OBJECT_NAME":"STARLINK-4206","COUNTRY_CODE":"US","ARG_OF_PERICENTER":"50.8069","LAUNCH_DATE":"2022-06-17","RCS_SIZE":"LARGE","MEAN_MOTION":"15.08840646","REF_FRAME":"TEME"},{"EPHEMERIS_TYPE":"0","OBJECT_ID":"2022-062U","SEMIMAJOR_AXIS":"6917.960","PERIOD":"95.439","CENTER_NAME":"EARTH","SITE":"AFETR","BSTAR":"0.00225560000000","ELEMENT_SET_NO":"999","MEAN_MOTION_DOT":"0.00035767","PERIAPSIS":"538.310","NORAD_CAT_ID":"52848","INCLINATION":"53.2194","DECAY_DATE":null,"CLASSIFICATION_TYPE":"U","GP_ID":"214438705","EPOCH":"2022-10-07T22:00:00.999936","APOAPSIS":"541.339","MEAN_MOTION_DDOT":"0.0000000000000","OBJECT_TYPE":"PAYLOAD","TLE_LINE2":"2 52848  53.2194 240.0849 0002189  34.6601  14.7177 15.08814113  1303","MEAN_ANOMALY":"14.7177","TLE_LINE1":"1 52848U 22062U   22280.91667824  .00035767  00000-0  22556-2 0  9996","LAUNCH_DATE":"2022-06-17","RCS_SIZE":"LARGE","REF_FRAME":"TEME","MEAN_MOTION":"15.08814113","REV_AT_EPOCH":"130","RA_OF_ASC_NODE":"240.0849","FILE":"3595773","ECCENTRICITY":"0.00021890","TIME_SYSTEM":"UTC","OBJECT_NAME":"STARLINK-4202","MEAN_ELEMENT_THEORY":"SGP4","COUNTRY_CODE":"US","ARG_OF_PERICENTER":"34.6601"},{"TLE_LINE2":"2 52849  53.2153 230.0729 0002067  33.2008 151.1619 15.08845207  1301","OBJECT_TYPE":"PAYLOAD","TLE_LINE1":"1 52849U 22062V   22280.91667824 -.00021738  00000-0 -13516-2 0  9998","MEAN_ANOMALY":"151.1619","RCS_SIZE":"LARGE","MEAN_MOTION":"15.08845207","REF_FRAME":"TEME","LAUNCH_DATE":"2022-06-17","MEAN_ELEMENT_THEORY":"SGP4","OBJECT_NAME":"STARLINK-4197","COUNTRY_CODE":"US","ARG_OF_PERICENTER":"33.2008","FILE":"3595773","RA_OF_ASC_NODE":"230.0729","REV_AT_EPOCH":"130","TIME_SYSTEM":"UTC","ECCENTRICITY":"0.00020670","PERIOD":"95.437","EPHEMERIS_TYPE":"0","OBJECT_ID":"2022-062V","SEMIMAJOR_AXIS":"6917.864","CENTER_NAME":"EARTH","MEAN_MOTION_DOT":"-0.00021738","INCLINATION":"53.2153","NORAD_CAT_ID":"52849","PERIAPSIS":"538.300","BSTAR":"-0.00135160000000","ELEMENT_SET_NO":"999","SITE":"AFETR","APOAPSIS":"541.159","MEAN_MOTION_DDOT":"0.0000000000000","DECAY_DATE":null,"CLASSIFICATION_TYPE":"U","EPOCH":"2022-10-07T22:00:00.999936","GP_ID":"214437795"},{"LAUNCH_DATE":"2022-06-17","RCS_SIZE":"LARGE","REF_FRAME":"TEME","MEAN_MOTION":"15.08848313","RA_OF_ASC_NODE":"240.0678","REV_AT_EPOCH":"130","FILE":"3595773","ECCENTRICITY":"0.00015660","TIME_SYSTEM":"UTC","OBJECT_NAME":"STARLINK-4187","MEAN_ELEMENT_THEORY":"SGP4","COUNTRY_CODE":"US","ARG_OF_PERICENTER":"56.4363","OBJECT_TYPE":"PAYLOAD","TLE_LINE2":"2 52850  53.2166 240.0678 0001566  56.4363  72.9317 15.08848313  1301","MEAN_ANOMALY":"72.9317","TLE_LINE1":"1 52850U 22062W   22280.91667824 -.00019610  00000-0 -12171-2 0  9992","SITE":"AFETR","ELEMENT_SET_NO":"999","BSTAR":"-0.00121710000000","MEAN_MOTION_DOT":"-0.00019610","NORAD_CAT_ID":"52850","PERIAPSIS":"538.637","INCLINATION":"53.2166","DECAY_DATE":null,"CLASSIFICATION_TYPE":"U","GP_ID":"214438541","EPOCH":"2022-10-07T22:00:00.999936","APOAPSIS":"540.803","MEAN_MOTION_DDOT":"0.0000000000000","EPHEMERIS_TYPE":"0","OBJECT_ID":"2022-062W","SEMIMAJOR_AXIS":"6917.855","PERIOD":"95.437","CENTER_NAME":"EARTH"},{"RCS_SIZE":"LARGE","MEAN_MOTION":"15.08855512","REF_FRAME":"TEME","LAUNCH_DATE":"2022-06-17","MEAN_ELEMENT_THEORY":"SGP4","OBJECT_NAME":"STARLINK-3809","ARG_OF_PERICENTER":"38.2507","COUNTRY_CODE":"US","FILE":"3595773","REV_AT_EPOCH":"130","RA_OF_ASC_NODE":"230.0726","TIME_SYSTEM":"UTC","ECCENTRICITY":"0.00018490","TLE_LINE2":"2 52851  53.2165 230.0726 0001849  38.2507 166.1272 15.08855512  1301","OBJECT_TYPE":"PAYLOAD","TLE_LINE1":"1 52851U 22062X   22280.91667824 -.00042758  00000-0 -26833-2 0  9992","MEAN_ANOMALY":"166.1272","MEAN_MOTION_DOT":"-0.00042758","INCLINATION":"53.2165","PERIAPSIS":"538.419","NORAD_CAT_ID":"52851","ELEMENT_SET_NO":"999","BSTAR":"-0.00268330000000","SITE":"AFETR","MEAN_MOTION_DDOT":"0.0000000000000","APOAPSIS":"540.977","DECAY_DATE":null,"CLASSIFICATION_TYPE":"U","GP_ID":"214437960","EPOCH":"2022-10-07T22:00:00.999936","PERIOD":"95.437","EPHEMERIS_TYPE":"0","OBJECT_ID":"2022-062X","SEMIMAJOR_AXIS":"6917.833","CENTER_NAME":"EARTH"},{"CENTER_NAME":"EARTH","SEMIMAJOR_AXIS":"6917.842","OBJECT_ID":"2022-062Y","EPHEMERIS_TYPE":"0","PERIOD":"95.437","EPOCH":"2022-10-07T22:00:00.999936","GP_ID":"214438944","CLASSIFICATION_TYPE":"U","DECAY_DATE":null,"MEAN_MOTION_DDOT":"0.0000000000000","APOAPSIS":"541.145","SITE":"AFETR","BSTAR":"0.00147040000000","ELEMENT_SET_NO":"999","NORAD_CAT_ID":"52852","PERIAPSIS":"538.269","INCLINATION":"53.2146","MEAN_MOTION_DOT":"0.00023199","MEAN_ANOMALY":"121.5643","TLE_LINE1":"1 52852U 22062Y   22280.91667824  .00023199  00000-0  14704-2 0  9993","OBJECT_TYPE":"PAYLOAD","TLE_LINE2":"2 52852  53.2146 230.0794 0002079  42.7797 121.5643 15.08852521  1307","ECCENTRICITY":"0.00020790","TIME_SYSTEM":"UTC","RA_OF_ASC_NODE":"230.0794","REV_AT_EPOCH":"130","FILE":"3595773","ARG_OF_PERICENTER":"42.7797","COUNTRY_CODE":"US","OBJECT_NAME":"STARLINK-4184","MEAN_ELEMENT_THEORY":"SGP4","LAUNCH_DATE":"2022-06-17","REF_FRAME":"TEME","MEAN_MOTION":"15.08852521","RCS_SIZE":"LARGE"},{"TLE_LINE1":"1 52853U 22062Z   22280.91667824 -.00017500  00000-0 -10839-2 0  9990","MEAN_ANOMALY":"200.8601","TLE_LINE2":"2 52853  53.2151 230.0730 0001714  43.4986 200.8601 15.08846581  1301","OBJECT_TYPE":"PAYLOAD","MEAN_ELEMENT_THEORY":"SGP4","OBJECT_NAME":"STARLINK-4189","COUNTRY_CODE":"US","ARG_OF_PERICENTER":"43.4986","FILE":"3595773","REV_AT_EPOCH":"130","RA_OF_ASC_NODE":"230.0730","TIME_SYSTEM":"UTC","ECCENTRICITY":"0.00017140","RCS_SIZE":"LARGE","MEAN_MOTION":"15.08846581","REF_FRAME":"TEME","LAUNCH_DATE":"2022-06-17","CENTER_NAME":"EARTH","PERIOD":"95.437","EPHEMERIS_TYPE":"0","OBJECT_ID":"2022-062Z","SEMIMAJOR_AXIS":"6917.860","MEAN_MOTION_DDOT":"0.0000000000000","APOAPSIS":"540.911","DECAY_DATE":null,"CLASSIFICATION_TYPE":"U","EPOCH":"2022-10-07T22:00:00.999936","GP_ID":"214438214","MEAN_MOTION_DOT":"-0.00017500","INCLINATION":"53.2151","NORAD_CAT_ID":"52853","PERIAPSIS":"538.540","ELEMENT_SET_NO":"999","BSTAR":"-0.00108390000000","SITE":"AFETR"}];
